STARLINK-33575          
1 62760U 25015C   26191.39208467  .00026883  00000+0  80436-3 0  9992
2 62760  53.1572 110.6320 0001150  86.8232 273.2902 15.34383163 82535
STARLINK-33584          
1 62761U 25015D   26191.33336806  .00005884  00000+0  18521-3 0  9990
2 62761  53.1565 111.0059 0001140  83.0101 277.6760 15.34388816  5901
STARLINK-33577          
1 62762U 25015E   26191.33138188  .00019827  00000+0  64849-3 0  9990
2 62762  53.1574 111.6982 0001217  68.9559 291.1573 15.31724866 83272
STARLINK-33597          
1 62763U 25015F   26189.95721912  .00024138  00000+0  78639-3 0  9992
2 62763  53.1566 118.7667 0001249  59.0229 301.0895 15.31727770 83053
STARLINK-33579          
1 62764U 25015G   26191.33671229  .00009119  00000+0  30503-3 0  9993
2 62764  53.1559 111.7349 0001301 108.2969 251.8174 15.31722183 83272
STARLINK-33592          
1 62765U 25015H   26191.37315058  .00005042  00000+0  16031-3 0  9994
2 62765  53.1572 110.5398 0001163 122.5448 237.5667 15.34387141 83166
STARLINK-33595          
1 62766U 25015J   26191.44038927  .00014212  00000+0  43141-3 0  9991
2 62766  53.1590 110.2516 0001008  82.4680 277.6437 15.34366300 83306
STARLINK-33572          
1 62767U 25015K   26191.36061412  .00022906  00000+0  68710-3 0  9996
2 62767  53.1565 111.1728 0000880 115.4652 244.6441 15.34394757 83224
STARLINK-33601          
1 62768U 25015L   26191.32484760  .00017189  00000+0  51852-3 0  9994
2 62768  53.1577 110.9513 0001142  72.3371 287.7756 15.34411680 83286
STARLINK-33569          
1 62769U 25015M   26191.29758513  .00016298  00000+0  49302-3 0  9998
2 62769  53.1572 111.4886 0001230  73.9670 286.1468 15.34361923 83274
STARLINK-33594          
1 62770U 25015N   26190.94992560  .00016689  00000+0  55029-3 0  9990
2 62770  53.1665 113.5829 0001413 252.7411 107.3435 15.31586482 83210
STARLINK-33598          
1 62771U 25015P   26191.15469127  .00027214  00000+0  81343-3 0  9997
2 62771  53.1613 112.0168 0002079  83.7840 276.3400 15.34407688 83257
STARLINK-33600          
1 62772U 25015Q   26191.26689510  .00009296  00000+0  31082-3 0  9995
2 62772  53.1569 112.7164 0001095  95.7124 264.4002 15.31711784 83254
STARLINK-33567          
1 62773U 25015R   26191.34588749  .00010321  00000+0  31622-3 0  9998
2 62773  53.1574 111.0766 0001172  88.3116 271.8021 15.34396148 83288
STARLINK-33574          
1 62774U 25015S   26191.25129526  .00019980  00000+0  60067-3 0  9998
2 62774  53.1580 111.2050 0001386  95.2195 264.8966 15.34411523 82997
STARLINK-33576          
1 62775U 25015T   26191.37946097 -.00019294  00000+0 -56131-3 0  9999
2 62775  53.1585 110.5810 0001615 116.2944 243.8225 15.34400792 83239
STARLINK-33570          
1 62776U 25015U   26191.25762297  .00026054  00000+0  77966-3 0  9994
2 62776  53.1558 111.2383 0001397  98.6192 261.4969 15.34396002 83215
STARLINK-33591          
1 62777U 25015V   26190.22173507  .00022834  00000+0  68439-3 0  9998
2 62777  53.1564 116.1570 0001346  97.3613 262.7543 15.34422024 83118
STARLINK-33573          
1 62778U 25015W   26191.43417652  .00085197  00000+0  25117-2 0  9991
2 62778  53.1616 110.9073 0001840 134.6741 225.4411 15.34305798 83290
STARLINK-33568          
1 62779U 25015X   26191.43205178  .00023458  00000+0  70281-3 0  9995
2 62779  53.1584 110.9077 0000766 122.2920 237.8157 15.34419320 83131
STARLINK-33593          
1 62780U 25015Y   26190.17132970  .00020434  00000+0  61382-3 0  9999
2 62780  53.1578 116.5434 0001357  86.6454 273.4704 15.34422727 83103
STARLINK-33588          
1 62781U 25015Z   26191.34110352 -.00006139  00000+0 -17076-3 0  9999
2 62781  53.1601 108.8557 0002535  62.2497 297.8763 15.34380339 83317
STARLINK-33585          
1 62782U 25015AA  26191.39196310  .00016332  00000+0  53692-3 0  9991
2 62782  53.1570 111.3674 0000969  67.1742 292.9361 15.31698606 83000
STARLINK-33582          
1 62783U 25015AB  26191.34382426  .00067790  00000+0  14198-2 0  9993
2 62783  53.1515 107.4941 0004784  74.1361 286.0173 15.44822488 83261
STARLINK-33581          
1 62784U 25015AC  26191.24822492  .00017646  00000+0  57888-3 0  9994
2 62784  53.1587 112.5974 0001375  62.8901 297.2241 15.31708605 83250
QIANFAN-55              
1 62785U 25016A   26191.74511863  .00000075  00000+0  96825-4 0  9991
2 62785  88.9722  81.4346 0019266  99.0150 261.3183 13.51010292 75549
QIANFAN-56              
1 62786U 25016B   26191.76160418  .00000080  00000+0  10516-3 0  9998
2 62786  88.9696  81.2132 0017868 100.8680 259.4484 13.51008885 75598
QIANFAN-57              
1 62787U 25016C   26191.72039108  .00000081  00000+0  10736-3 0  9991
2 62787  88.9727  81.4364 0001349  70.6062 289.5235 13.51008940 75554
QIANFAN-58              
1 62788U 25016D   26191.76555169  .00000046  00000+0  51576-4 0  9995
2 62788  88.9697  81.1993 0015880  93.7924 266.5043 13.51013421 75602
QIANFAN-59              
1 62789U 25016E   26191.71622206  .00000079  00000+0  10366-3 0  9995
2 62789  88.9720  81.3278 0016208  97.3686 262.9308 13.51017658 75596
QIANFAN-60              
1 62790U 25016F   26191.74929936  .00000077  00000+0  10077-3 0  9997
2 62790  88.9701  81.2557 0017799  94.3441 265.9745 13.51005357 75588
QIANFAN-61              
1 62791U 25016G   26191.78214845  .00000065  00000+0  81871-4 0  9996
2 62791  88.9768  81.5576 0016733  93.5768 266.7297 13.51012757 75602
QIANFAN-62              
1 62792U 25016H   26191.71207860  .00000069  00000+0  87973-4 0  9992
2 62792  88.9715  81.3203 0018109  94.2902 266.0319 13.51022264 75586
QIANFAN-63              
1 62793U 25016J   26191.73682801  .00000070  00000+0  89176-4 0  9996
2 62793  88.9722  81.2834 0018098  98.9531 261.3670 13.51016312 75620
QIANFAN-64              
1 62794U 25016K   26191.77801603  .00000068  00000+0  86842-4 0  9998
2 62794  88.9709  81.2250 0016117  92.3689 267.9308 13.51012776 75620
QIANFAN-65              
1 62795U 25016L   26191.77392035  .00000072  00000+0  93225-4 0  9991
2 62795  88.9705  81.2440 0015955  93.8347 266.4629 13.51029362 75601
QIANFAN-66              
1 62796U 25016M   26191.72874045  .00000084  00000+0  11138-3 0  9998
2 62796  88.9725  81.2601 0017089  90.2017 270.1092 13.51008612 75643
QIANFAN-67              
1 62797U 25016N   26191.73280005  .00000075  00000+0  97632-4 0  9991
2 62797  88.9715  81.2646 0016991  96.3122 263.9965 13.51011163 75618
QIANFAN-68              
1 62798U 25016P   26191.72444825  .00000078  00000+0  10173-3 0  9990
2 62798  88.9718  81.3181 0017088  94.4154 265.8950 13.51023814 75597
QIANFAN-69              
1 62799U 25016Q   26191.74087529  .00000064  00000+0  80680-4 0  9993
2 62799  88.9698  81.1411 0017810  95.7795 264.5388 13.51017709 75639
QIANFAN-70              
1 62800U 25016R   26191.75740302  .00000082  00000+0  10821-3 0  9991
2 62800  88.9718  81.3217 0017492  87.1896 273.1257 13.51016060 75599
QIANFAN-71              
1 62801U 25016S   26191.75339488  .00000075  00000+0  97170-4 0  9996
2 62801  88.9712  81.2889 0017677  98.9185 261.3968 13.51010401 75595
QIANFAN-72              
1 62802U 25016T   26191.76968843  .00000075  00000+0  96819-4 0  9990
2 62802  88.9702  81.2801 0020820 105.8607 254.4841 13.51013564 75585
TJS-14                  
1 62804U 25017A   26191.85550569  .00000125  00000+0  00000+0 0  9993
2 62804   0.7315 297.3156 0001783 293.8436  24.0037  1.00274037  5505
STARLINK-32883          
1 62806U 25018A   26191.33888592 -.00004665  00000+0 -12711-3 0  9990
2 62806  53.1591  98.6948 0001461  86.3092 273.8077 15.34375339 82885
STARLINK-32886          
1 62807U 25018B   26191.34519985  .00020192  00000+0  60800-3 0  9992
2 62807  53.1600  98.7376 0001896  44.7275 315.3880 15.34355297 81970
STARLINK-32848          
1 62808U 25018C   26190.20044327  .00014808  00000+0  48755-3 0  9992
2 62808  53.1561 104.3846 0001479  91.5186 268.5985 15.31729417 81781
STARLINK-32787          
1 62809U 25018D   26191.37675530 -.00006654  00000+0 -18611-3 0  9998
2 62809  53.1576  98.9312 0001463 121.7976 238.3169 15.34377137 81960
STARLINK-32851          
1 62810U 25018E   26191.11820758  .00007614  00000+0  26900-3 0  9991
2 62810  53.1578 100.8688 0001897  80.1584 279.9631 15.30194301 81913
STARLINK-32847          
1 62811U 25018F   26191.36153694  .00018281  00000+0  62805-3 0  9993
2 62811  53.1564  99.5385 0001552  92.3860 267.7319 15.30188967 81950
STARLINK-32837          
1 62812U 25018G   26191.33267896  .00028349  00000+0  84634-3 0  9991
2 62812  53.1605  99.3765 0002537  33.1488 326.9673 15.34422743 81969
STARLINK-32855          
1 62813U 25018H   26191.34732550  .00030363  00000+0  90688-3 0  9992
2 62813  53.1583  98.7477 0001767  93.5420 266.5785 15.34374022 81967
STARLINK-32843          
1 62814U 25018J   26191.25845922  .00011322  00000+0  37598-3 0  9996
2 62814  53.1584  99.6103 0001177  99.0848 261.0287 15.31706082 81942
STARLINK-32845          
1 62815U 25018K   26189.91775305  .00036170  00000+0  11600-2 0  9997
2 62815  53.1565 106.1749 0002077 176.7605 183.3410 15.32021237 81730
STARLINK-32854          
1 62816U 25018L   26191.33477700  .00020939  00000+0  62931-3 0  9995
2 62816  53.1580  99.3750 0001547 107.2660 252.8512 15.34390720 81940
STARLINK-32824          
1 62817U 25018M   26189.92987095  .00011609  00000+0  40330-3 0  9994
2 62817  53.1568 106.2447 0001290 100.7776 259.3370 15.30213896 82689
STARLINK-32853          
1 62818U 25018N   26191.28845625  .00015328  00000+0  46324-3 0  9990
2 62818  53.1582  99.0893 0000711 100.8429 259.2654 15.34441643 81964
STARLINK-32856          
1 62819U 25018P   26191.36203362  .00015954  00000+0  48255-3 0  9996
2 62819  53.1590  98.8380 0001043 113.6801 246.4311 15.34384582 81974
STARLINK-32844          
1 62820U 25018Q   26191.31438553  .00001355  00000+0  55445-4 0  9995
2 62820  53.1582  99.2457 0001388  89.8883 270.2277 15.31680764 81955
